COSMOS 2251 DEB         
1 34611U 93036WG  17345.90504925  .00000349  00000-0  10637-3 0  9996
2 34611  74.0611 186.5867 0040076 261.0335 165.3055 14.45244847460091
